{"type": "FeatureCollection", "features": [{"type": "Feature", "properties": {"norad_id": 26766, "name": "INTELSAT 10 (IS-10)", "group": "intelsat", "lat": 4.331484702494216, "lon": 90.78161016636805, "alt_km": 36155.41385573527, "timestamp": "2025-12-19T16:54:43.918450+00:00", "meta": {"OBJECT_NAME": "INTELSAT 10 (IS-10)", "OBJECT_ID": "2001-019A", "EPOCH": "2025-12-18T15:52:21.542016", "MEAN_MOTION": 0.99076062, "ECCENTRICITY": 0.00076782, "INCLINATION": 8.6429, "RA_OF_ASC_NODE": 61.0978, "ARG_OF_PERICENTER": 228.2333, "MEAN_ANOMALY": 149.5829, "EPHEMERIS_TYPE": 0, "CLASSIFICATION_TYPE": "U", "NORAD_CAT_ID": 26766, "ELEMENT_SET_NO": 999, "REV_AT_EPOCH": 4379, "BSTAR": 0, "MEAN_MOTION_DOT": -1.61e-06, "MEAN_MOTION_DDOT": 0}, "tle": {"line1": "1 26766U 01019A   25352.66136044 -.00000161  00000+0  00000+0 0  9992", "line2": "2 26766   8.6429  61.0978 0007678 228.2333 149.5829  0.99076062 43790"}}, "geometry": {"type": "Point", "coordinates": [90.78161016636805, 4.331484702494216]}}, {"type": "Feature", "properties": {"norad_id": 26900, "name": "INTELSAT 902 (IS-902)", "group": "intelsat", "lat": -3.519595437739013, "lon": -68.01181344268886, "alt_km": 35770.45955809194, "timestamp": "2025-12-19T16:54:43.918476+00:00", "meta": {"OBJECT_NAME": "INTELSAT 902 (IS-902)", "OBJECT_ID": "2001-039A", "EPOCH": "2025-12-15T13:09:02.081664", "MEAN_MOTION": 1.0027087, "ECCENTRICITY": 0.00045028, "INCLINATION": 5.6536, "RA_OF_ASC_NODE": 74.0372, "ARG_OF_PERICENTER": 189.6359, "MEAN_ANOMALY": 327.9329, "EPHEMERIS_TYPE": 0, "CLASSIFICATION_TYPE": "U", "NORAD_CAT_ID": 26900, "ELEMENT_SET_NO": 999, "REV_AT_EPOCH": 8885, "BSTAR": 0, "MEAN_MOTION_DOT": -2.65e-06, "MEAN_MOTION_DDOT": 0}, "tle": {"line1": "1 26900U 01039A   25349.54794076 -.00000265  00000+0  00000+0 0  9997", "line2": "2 26900   5.6536  74.0372 0004502 189.6359 327.9329  1.00270870 88858"}}, "geometry": {"type": "Point", "coordinates": [-68.01181344268886, -3.519595437739013]}}, {"type": "Feature", "properties": {"norad_id": 27380, "name": "INTELSAT 904 (IS-904)", "group": "intelsat", "lat": -5.587008308706829, "lon": -49.4330638243606, "alt_km": 35779.691568208254, "timestamp": "2025-12-19T16:54:43.918492+00:00", "meta": {"OBJECT_NAME": "INTELSAT 904 (IS-904)", "OBJECT_ID": "2002-007A", "EPOCH": "2025-12-19T06:28:21.732672", "MEAN_MOTION": 1.00271349, "ECCENTRICITY": 0.00017442, "INCLINATION": 6.47, "RA_OF_ASC_NODE": 71.3577, "ARG_OF_PERICENTER": 246.9588, "MEAN_ANOMALY": 195.3942, "EPHEMERIS_TYPE": 0, "CLASSIFICATION_TYPE": "U", "NORAD_CAT_ID": 27380, "ELEMENT_SET_NO": 999, "REV_AT_EPOCH": 4996, "BSTAR": 0, "MEAN_MOTION_DOT": -2.07e-06, "MEAN_MOTION_DDOT": 0}, "tle": {"line1": "1 27380U 02007A   25353.26969598 -.00000207  00000+0  00000+0 0  9999", "line2": "2 27380   6.4700  71.3577 0001744 246.9588 195.3942  1.00271349 49965"}}, "geometry": {"type": "Point", "coordinates": [-49.4330638243606, -5.587008308706829]}}, {"type": "Feature", "properties": {"norad_id": 27426, "name": "DIRECTV 5 (TEMPO 1)", "group": "intelsat", "lat": 1.87881330643293, "lon": -127.84509539163379, "alt_km": 35776.875009270676, "timestamp": "2025-12-19T16:54:43.918505+00:00", "meta": {"OBJECT_NAME": "DIRECTV 5 (TEMPO 1)", "OBJECT_ID": "2002-023A", "EPOCH": "2025-12-19T05:54:43.346592", "MEAN_MOTION": 1.0027278, "ECCENTRICITY": 0.00034269, "INCLINATION": 4.4178, "RA_OF_ASC_NODE": 77.5774, "ARG_OF_PERICENTER": 207.9446, "MEAN_ANOMALY": 141.1455, "EPHEMERIS_TYPE": 0, "CLASSIFICATION_TYPE": "U", "NORAD_CAT_ID": 27426, "ELEMENT_SET_NO": 999, "REV_AT_EPOCH": 8631, "BSTAR": 0, "MEAN_MOTION_DOT": -3.6e-07, "MEAN_MOTION_DDOT": 0}, "tle": {"line1": "1 27426U 02023A   25353.24633503 -.00000036  00000+0  00000+0 0  9990", "line2": "2 27426   4.4178  77.5774 0003426 207.9446 141.1455  1.00272780 86317"}}, "geometry": {"type": "Point", "coordinates": [-127.84509539163379, 1.87881330643293]}}, {"type": "Feature", "properties": {"norad_id": 27438, "name": "INTELSAT 905 (IS-905)", "group": "intelsat", "lat": 4.594889090449684, "lon": -154.83248478115894, "alt_km": 35780.94082616006, "timestamp": "2025-12-19T16:54:43.918518+00:00", "meta": {"OBJECT_NAME": "INTELSAT 905 (IS-905)", "OBJECT_ID": "2002-027A", "EPOCH": "2025-12-18T20:04:07.110624", "MEAN_MOTION": 1.00272079, "ECCENTRICITY": 0.00026396, "INCLINATION": 6.3, "RA_OF_ASC_NODE": 71.9858, "ARG_OF_PERICENTER": 200.0074, "MEAN_ANOMALY": 339.5183, "EPHEMERIS_TYPE": 0, "CLASSIFICATION_TYPE": "U", "NORAD_CAT_ID": 27438, "ELEMENT_SET_NO": 999, "REV_AT_EPOCH": 4955, "BSTAR": 0, "MEAN_MOTION_DOT": 1.13e-06, "MEAN_MOTION_DDOT": 0}, "tle": {"line1": "1 27438U 02027A   25352.83619341  .00000113  00000+0  00000+0 0  9990", "line2": "2 27438   6.3000  71.9858 0002639 200.0074 339.5183  1.00272079 49559"}}, "geometry": {"type": "Point", "coordinates": [-154.83248478115894, 4.594889090449684]}}, {"type": "Feature", "properties": {"norad_id": 27445, "name": "GALAXY 3C (G-3C)", "group": "intelsat", "lat": 0.7151194464465512, "lon": -112.59920737902121, "alt_km": 35785.857116896856, "timestamp": "2025-12-19T16:54:43.918531+00:00", "meta": {"OBJECT_NAME": "GALAXY 3C (G-3C)", "OBJECT_ID": "2002-030A", "EPOCH": "2025-12-19T06:03:44.417088", "MEAN_MOTION": 1.00271938, "ECCENTRICITY": 0.0001141, "INCLINATION": 3.2793, "RA_OF_ASC_NODE": 80.4404, "ARG_OF_PERICENTER": 78.4282, "MEAN_ANOMALY": 285.3097, "EPHEMERIS_TYPE": 0, "CLASSIFICATION_TYPE": "U", "NORAD_CAT_ID": 27445, "ELEMENT_SET_NO": 999, "REV_AT_EPOCH": 4469, "BSTAR": 0, "MEAN_MOTION_DOT": -1.31e-06, "MEAN_MOTION_DDOT": 0}, "tle": {"line1": "1 27445U 02030A   25353.25259742 -.00000131  00000+0  00000+0 0  9995", "line2": "2 27445   3.2793  80.4404 0001141  78.4282 285.3097  1.00271938 44694"}}, "geometry": {"type": "Point", "coordinates": [-112.59920737902121, 0.7151194464465512]}}, {"type": "Feature", "properties": {"norad_id": 27513, "name": "INTELSAT 906 (IS-906)", "group": "intelsat", "lat": -2.550121180132992, "lon": 46.514088760540595, "alt_km": 35804.586645323696, "timestamp": "2025-12-19T16:54:43.918543+00:00", "meta": {"OBJECT_NAME": "INTELSAT 906 (IS-906)", "OBJECT_ID": "2002-041A", "EPOCH": "2025-12-19T05:00:36.705888", "MEAN_MOTION": 1.00272586, "ECCENTRICITY": 0.00063202, "INCLINATION": 5.3458, "RA_OF_ASC_NODE": 75.1553, "ARG_OF_PERICENTER": 197.8697, "MEAN_ANOMALY": 314.3156, "EPHEMERIS_TYPE": 0, "CLASSIFICATION_TYPE": "U", "NORAD_CAT_ID": 27513, "ELEMENT_SET_NO": 999, "REV_AT_EPOCH": 8522, "BSTAR": 0, "MEAN_MOTION_DOT": 3.3e-07, "MEAN_MOTION_DDOT": 0}, "tle": {"line1": "1 27513U 02041A   25353.20875817  .00000033  00000+0  00000+0 0  9995", "line2": "2 27513   5.3458  75.1553 0006320 197.8697 314.3156  1.00272586 85220"}}, "geometry": {"type": "Point", "coordinates": [46.514088760540595, -2.550121180132992]}}, {"type": "Feature", "properties": {"norad_id": 27954, "name": "GALAXY 13 (HORIZONS-1)", "group": "intelsat", "lat": 0.9092295960590236, "lon": -167.8113247946707, "alt_km": 35783.02153344701, "timestamp": "2025-12-19T16:54:43.918556+00:00", "meta": {"OBJECT_NAME": "GALAXY 13 (HORIZONS-1)", "OBJECT_ID": "2003-044A", "EPOCH": "2025-12-19T05:25:38.491680", "MEAN_MOTION": 1.0026926, "ECCENTRICITY": 0.00024327, "INCLINATION": 0.9531, "RA_OF_ASC_NODE": 86.3872, "ARG_OF_PERICENTER": 175.357, "MEAN_ANOMALY": 117.7371, "EPHEMERIS_TYPE": 0, "CLASSIFICATION_TYPE": "U", "NORAD_CAT_ID": 27954, "ELEMENT_SET_NO": 999, "REV_AT_EPOCH": 4476, "BSTAR": 0, "MEAN_MOTION_DOT": 1.57e-06, "MEAN_MOTION_DDOT": 0}, "tle": {"line1": "1 27954U 03044A   25353.22613995  .00000157  00000+0  00000+0 0  9994", "line2": "2 27954   0.9531  86.3872 0002432 175.3570 117.7371  1.00269260 44764"}}, "geometry": {"type": "Point", "coordinates": [-167.8113247946707, 0.9092295960590236]}}, {"type": "Feature", "properties": {"norad_id": 28358, "name": "INTELSAT 10-02", "group": "intelsat", "lat": -0.021608042082298502, "lon": -18.727207807463984, "alt_km": 35782.82425284597, "timestamp": "2025-12-19T16:54:43.918568+00:00", "meta": {"OBJECT_NAME": "INTELSAT 10-02", "OBJECT_ID": "2004-022A", "EPOCH": "2025-12-18T20:08:22.788096", "MEAN_MOTION": 1.00272833, "ECCENTRICITY": 8.965e-05, "INCLINATION": 0.0192, "RA_OF_ASC_NODE": 66.3622, "ARG_OF_PERICENTER": 235.9772, "MEAN_ANOMALY": 86.4926, "EPHEMERIS_TYPE": 0, "CLASSIFICATION_TYPE": "U", "NORAD_CAT_ID": 28358, "ELEMENT_SET_NO": 999, "REV_AT_EPOCH": 7874, "BSTAR": 0, "MEAN_MOTION_DOT": 1.5e-07, "MEAN_MOTION_DDOT": 0}, "tle": {"line1": "1 28358U 04022A   25352.83915264  .00000015  00000+0  00000+0 0  9993", "line2": "2 28358   0.0192  66.3622 0000896 235.9772  86.4926  1.00272833 78740"}}, "geometry": {"type": "Point", "coordinates": [-18.727207807463984, -0.021608042082298502]}}, {"type": "Feature", "properties": {"norad_id": 28626, "name": "XM-3 (RHYTHM)", "group": "intelsat", "lat": -0.033941705416459675, "lon": 63.446744177083154, "alt_km": 36157.15660901351, "timestamp": "2025-12-19T16:54:43.918580+00:00", "meta": {"OBJECT_NAME": "XM-3 (RHYTHM)", "OBJECT_ID": "2005-008A", "EPOCH": "2025-12-19T03:23:23.518752", "MEAN_MOTION": 0.98950167, "ECCENTRICITY": 0.00018735, "INCLINATION": 0.1906, "RA_OF_ASC_NODE": 81.929, "ARG_OF_PERICENTER": 278.2541, "MEAN_ANOMALY": 222.5456, "EPHEMERIS_TYPE": 0, "CLASSIFICATION_TYPE": "U", "NORAD_CAT_ID": 28626, "ELEMENT_SET_NO": 999, "REV_AT_EPOCH": 4081, "BSTAR": 0, "MEAN_MOTION_DOT": 4.8e-07, "MEAN_MOTION_DDOT": 0}, "tle": {"line1": "1 28626U 05008A   25353.14124443  .00000048  00000+0  00000+0 0  9998", "line2": "2 28626   0.1906  81.9290 0001873 278.2541 222.5456  0.98950167 40813"}}, "geometry": {"type": "Point", "coordinates": [63.446744177083154, -0.033941705416459675]}}]}